METOP-B                 
1 38771U 12049A   23019.14916292  .00000288  00000+0  15175-3 0  9990
2 38771  98.7018  80.8621 0001623 107.5304 279.4767 14.21500081536376
METEOR-M2 2             
1 44387U 19038A   23019.18656256  .00000124  00000+0  73879-4 0  9995
2 44387  98.7541 343.5630 0001967  42.3873 317.7461 14.23742195184107
NOAA 15                 
1 25338U 98030A   23019.08328127  .00000378  00000+0  17596-3 0  9995
2 25338  98.6235  50.5673 0010874  34.0547 326.1329 14.26226053284006
NOAA 18                 
1 28654U 05018A   23019.14075904  .00000378  00000+0  22721-3 0  9998
2 28654  98.9271  94.1685 0015183  83.1212 277.1686 14.12843485910525
NOAA 19                 
1 33591U 09005A   23019.09601376  .00000340  00000+0  20818-3 0  9990
2 33591  99.1227  62.4894 0013090 304.3588  55.6344 14.12670529718897
